{"type": "FeatureCollection", "features": [{"type": "Feature", "properties": {"norad_id": 50032, "name": "COSMOS 1408 DEB", "group": "cosmos-1408-debris", "lat": 29.75081234413094, "lon": 54.381679964977735, "alt_km": 436.95895927781476, "timestamp": "2025-12-20T22:39:10.897517+00:00", "meta": {"OBJECT_NAME": "COSMOS 1408 DEB", "OBJECT_ID": "1982-092RU", "EPOCH": "2025-12-20T14:45:17.706528", "MEAN_MOTION": 15.45767226, "ECCENTRICITY": 0.00160149, "INCLINATION": 82.5637, "RA_OF_ASC_NODE": 50.4376, "ARG_OF_PERICENTER": 179.1551, "MEAN_ANOMALY": 180.9729, "EPHEMERIS_TYPE": 0, "CLASSIFICATION_TYPE": "U", "NORAD_CAT_ID": 50032, "ELEMENT_SET_NO": 999, "REV_AT_EPOCH": 22725, "BSTAR": 7.5967077e-05, "MEAN_MOTION_DOT": 3.734e-05, "MEAN_MOTION_DDOT": 0}, "tle": {"line1": "1 50032U 82092RU  25354.61478827  .00003734  00000+0  75967-4 0  9997", "line2": "2 50032  82.5637  50.4376 0016014 179.1551 180.9729 15.45767226227258"}}, "geometry": {"type": "Point", "coordinates": [54.381679964977735, 29.75081234413094]}}, {"type": "Feature", "properties": {"norad_id": 50058, "name": "COSMOS 1408 DEB", "group": "cosmos-1408-debris", "lat": 59.96188042045946, "lon": 73.71905840893857, "alt_km": 357.9754962994575, "timestamp": "2025-12-20T22:39:10.897534+00:00", "meta": {"OBJECT_NAME": "COSMOS 1408 DEB", "OBJECT_ID": "1982-092SW", "EPOCH": "2025-12-20T11:38:58.794144", "MEAN_MOTION": 15.64543293, "ECCENTRICITY": 0.00161504, "INCLINATION": 82.6128, "RA_OF_ASC_NODE": 61.2329, "ARG_OF_PERICENTER": 72.3269, "MEAN_ANOMALY": 287.9752, "EPHEMERIS_TYPE": 0, "CLASSIFICATION_TYPE": "U", "NORAD_CAT_ID": 50058, "ELEMENT_SET_NO": 999, "REV_AT_EPOCH": 22925, "BSTAR": 0.00024420793, "MEAN_MOTION_DOT": 0.0002374, "MEAN_MOTION_DDOT": 0}, "tle": {"line1": "1 50058U 82092SW  25354.48540271  .00023740  00000+0  24421-3 0  9990", "line2": "2 50058  82.6128  61.2329 0016150  72.3269 287.9752 15.64543293229254"}}, "geometry": {"type": "Point", "coordinates": [73.71905840893857, 59.96188042045946]}}, {"type": "Feature", "properties": {"norad_id": 50404, "name": "COSMOS 1408 DEB", "group": "cosmos-1408-debris", "lat": 41.40997067565655, "lon": 19.68810914104661, "alt_km": 419.26662089782803, "timestamp": "2025-12-20T22:39:10.897546+00:00", "meta": {"OBJECT_NAME": "COSMOS 1408 DEB", "OBJECT_ID": "1982-092ADS", "EPOCH": "2025-12-20T14:06:59.040576", "MEAN_MOTION": 15.14934617, "ECCENTRICITY": 0.01688909, "INCLINATION": 82.2054, "RA_OF_ASC_NODE": 206.9916, "ARG_OF_PERICENTER": 172.0207, "MEAN_ANOMALY": 188.3778, "EPHEMERIS_TYPE": 0, "CLASSIFICATION_TYPE": "U", "NORAD_CAT_ID": 50404, "ELEMENT_SET_NO": 999, "REV_AT_EPOCH": 21312, "BSTAR": 0.0021441671, "MEAN_MOTION_DOT": 0.00057748, "MEAN_MOTION_DDOT": 0}, "tle": {"line1": "1 50404U 82092ADS 25354.58818334  .00057748  00000+0  21442-2 0  9998", "line2": "2 50404  82.2054 206.9916 0168890 172.0207 188.3778 15.14934617213122"}}, "geometry": {"type": "Point", "coordinates": [19.68810914104661, 41.40997067565655]}}, {"type": "Feature", "properties": {"norad_id": 50621, "name": "COSMOS 1408 DEB", "group": "cosmos-1408-debris", "lat": -36.86471901185315, "lon": -108.74605528672792, "alt_km": 404.0999077688357, "timestamp": "2025-12-20T22:39:10.897556+00:00", "meta": {"OBJECT_NAME": "COSMOS 1408 DEB", "OBJECT_ID": "1982-092ALR", "EPOCH": "2025-12-20T10:55:44.896800", "MEAN_MOTION": 15.57036715, "ECCENTRICITY": 0.00290845, "INCLINATION": 82.5699, "RA_OF_ASC_NODE": 66.1468, "ARG_OF_PERICENTER": 124.5175, "MEAN_ANOMALY": 235.8832, "EPHEMERIS_TYPE": 0, "CLASSIFICATION_TYPE": "U", "NORAD_CAT_ID": 50621, "ELEMENT_SET_NO": 999, "REV_AT_EPOCH": 22370, "BSTAR": 0.00027044295, "MEAN_MOTION_DOT": 0.00019984, "MEAN_MOTION_DDOT": 0}, "tle": {"line1": "1 50621U 82092ALR 25354.45538075  .00019984  00000+0  27044-3 0  9991", "line2": "2 50621  82.5699  66.1468 0029084 124.5175 235.8832 15.57036715223709"}}, "geometry": {"type": "Point", "coordinates": [-108.74605528672792, -36.86471901185315]}}]}